start=new Date('2023-04-11T00:00:00.000Z').valueOf();
sats=[{"INCLINATION":"53.0529","PERIOD":"95.593","COUNTRY_CODE":"US","TLE_LINE1":"1 48119U 21027AD  23100.79215840  .00025952  00000-0  17556-2 0  9996","ECCENTRICITY":"0.00014380","ARG_OF_PERICENTER":"217.7445","FILE":"3885363","NORAD_CAT_ID":"48119","REF_FRAME":"TEME","GP_ID":"229878068","SEMIMAJOR_AXIS":"6925.403","RCS_SIZE":"LARGE","SITE":"AFETR","OBJECT_TYPE":"PAYLOAD","LAUNCH_DATE":"2021-04-07","EPHEMERIS_TYPE":"0","RA_OF_ASC_NODE":"247.6268","MEAN_MOTION_DDOT":"0.0000000000000","TIME_SYSTEM":"UTC","CENTER_NAME":"EARTH","TLE_LINE2":"2 48119  53.0529 247.6268 0001438 217.7445 142.3443 15.06382258112331","MEAN_ANOMALY":"142.3443","PERIAPSIS":"546.272","APOAPSIS":"548.264","BSTAR":"0.00175560000000","MEAN_ELEMENT_THEORY":"SGP4","MEAN_MOTION":"15.06382258","ELEMENT_SET_NO":"999","CLASSIFICATION_TYPE":"U","EPOCH":"2023-04-10T19:00:42.485760","MEAN_MOTION_DOT":"0.00025952","OBJECT_NAME":"STARLINK-2459","REV_AT_EPOCH":"11233","DECAY_DATE":null,"OBJECT_ID":"2021-027AD"},{"TIME_SYSTEM":"UTC","MEAN_MOTION_DDOT":"0.0000000000000","CENTER_NAME":"EARTH","TLE_LINE2":"2 48120  53.0518 267.9043 0001340  88.8666 271.2476 15.06412037112068","PERIAPSIS":"546.249","MEAN_ANOMALY":"271.2476","BSTAR":"0.00069162000000","APOAPSIS":"548.105","MEAN_ELEMENT_THEORY":"SGP4","ELEMENT_SET_NO":"999","MEAN_MOTION":"15.06412037","EPOCH":"2023-04-10T17:34:32.783232","CLASSIFICATION_TYPE":"U","MEAN_MOTION_DOT":"0.00010038","REV_AT_EPOCH":"11206","OBJECT_NAME":"STARLINK-2460","DECAY_DATE":null,"OBJECT_ID":"2021-027AE","INCLINATION":"53.0518","PERIOD":"95.591","COUNTRY_CODE":"US","ARG_OF_PERICENTER":"88.8666","ECCENTRICITY":"0.00013400","TLE_LINE1":"1 48120U 21027AE  23100.73232388  .00010038  00000-0  69162-3 0  9998","FILE":"3885363","NORAD_CAT_ID":"48120","REF_FRAME":"TEME","GP_ID":"229878823","OBJECT_TYPE":"PAYLOAD","SITE":"AFETR","RCS_SIZE":"LARGE","SEMIMAJOR_AXIS":"6925.312","LAUNCH_DATE":"2021-04-07","RA_OF_ASC_NODE":"267.9043","EPHEMERIS_TYPE":"0"},{"LAUNCH_DATE":"2021-04-07","EPHEMERIS_TYPE":"0","RA_OF_ASC_NODE":"258.0336","NORAD_CAT_ID":"48121","REF_FRAME":"TEME","GP_ID":"229878563","RCS_SIZE":"LARGE","SEMIMAJOR_AXIS":"6925.308","SITE":"AFETR","OBJECT_TYPE":"PAYLOAD","FILE":"3885363","INCLINATION":"53.0532","PERIOD":"95.591","COUNTRY_CODE":"US","ECCENTRICITY":"0.00019420","TLE_LINE1":"1 48121U 21027AF  23100.70376135  .00022669  00000-0  15353-2 0  9990","ARG_OF_PERICENTER":"82.8636","MEAN_MOTION_DOT":"0.00022669","OBJECT_NAME":"STARLINK-2462","REV_AT_EPOCH":"11218","OBJECT_ID":"2021-027AF","DECAY_DATE":null,"MEAN_MOTION":"15.06413108","ELEMENT_SET_NO":"999","EPOCH":"2023-04-10T16:53:24.980640","CLASSIFICATION_TYPE":"U","PERIAPSIS":"545.828","MEAN_ANOMALY":"277.2574","APOAPSIS":"548.518","BSTAR":"0.00153530000000","MEAN_ELEMENT_THEORY":"SGP4","MEAN_MOTION_DDOT":"0.0000000000000","CENTER_NAME":"EARTH","TIME_SYSTEM":"UTC","TLE_LINE2":"2 48121  53.0532 258.0336 0001942  82.8636 277.2574 15.06413108112188"},{"FILE":"3885363","TLE_LINE1":"1 48122U 21027AG  23100.70235482  .00022496  00000-0  15252-2 0  9996","ECCENTRICITY":"0.00011040","ARG_OF_PERICENTER":"101.3934","COUNTRY_CODE":"US","PERIOD":"95.594","INCLINATION":"53.0540","EPHEMERIS_TYPE":"0","RA_OF_ASC_NODE":"253.0140","LAUNCH_DATE":"2021-04-07","SEMIMAJOR_AXIS":"6925.417","RCS_SIZE":"LARGE","OBJECT_TYPE":"PAYLOAD","SITE":"AFETR","GP_ID":"229877322","REF_FRAME":"TEME","NORAD_CAT_ID":"48122","MEAN_ELEMENT_THEORY":"SGP4","APOAPSIS":"548.046","BSTAR":"0.00152520000000","MEAN_ANOMALY":"258.7179","PERIAPSIS":"546.517","TLE_LINE2":"2 48122  53.0540 253.0140 0001104 101.3934 258.7179 15.06377759112269","MEAN_MOTION_DDOT":"0.0000000000000","TIME_SYSTEM":"UTC","CENTER_NAME":"EARTH","OBJECT_ID":"2021-027AG","DECAY_DATE":null,"OBJECT_NAME":"STARLINK-2463","REV_AT_EPOCH":"11226","MEAN_MOTION_DOT":"0.00022496","EPOCH":"2023-04-10T16:51:23.456448","CLASSIFICATION_TYPE":"U","MEAN_MOTION":"15.06377759","ELEMENT_SET_NO":"999"},{"EPHEMERIS_TYPE":"0","RA_OF_ASC_NODE":"247.4004","LAUNCH_DATE":"2021-04-07","SITE":"AFETR","OBJECT_TYPE":"PAYLOAD","SEMIMAJOR_AXIS":"6925.369","RCS_SIZE":"LARGE","GP_ID":"229877569","REF_FRAME":"TEME","NORAD_CAT_ID":"48123","FILE":"3885363","ARG_OF_PERICENTER":"82.0102","TLE_LINE1":"1 48123U 21027AH  23100.84474484  .00022259  00000-0  15088-2 0  9993","ECCENTRICITY":"0.00011030","COUNTRY_CODE":"US","PERIOD":"95.593","INCLINATION":"53.0523","DECAY_DATE":null,"OBJECT_ID":"2021-027AH","REV_AT_EPOCH":"11235","OBJECT_NAME":"STARLINK-2464","MEAN_MOTION_DOT":"0.00022259","EPOCH":"2023-04-10T20:16:25.954176","CLASSIFICATION_TYPE":"U","ELEMENT_SET_NO":"999","MEAN_MOTION":"15.06393259","MEAN_ELEMENT_THEORY":"SGP4","BSTAR":"0.00150880000000","APOAPSIS":"547.998","PERIAPSIS":"546.470","MEAN_ANOMALY":"278.1012","TLE_LINE2":"2 48123  53.0523 247.4004 0001103  82.0102 278.1012 15.06393259112353","MEAN_MOTION_DDOT":"0.0000000000000","TIME_SYSTEM":"UTC","CENTER_NAME":"EARTH"},{"APOAPSIS":"548.167","BSTAR":"0.00175620000000","PERIAPSIS":"546.256","MEAN_ANOMALY":"270.1592","MEAN_ELEMENT_THEORY":"SGP4","MEAN_MOTION_DDOT":"0.0000000000000","TIME_SYSTEM":"UTC","CENTER_NAME":"EARTH","TLE_LINE2":"2 48124  53.0544 258.0033 0001380  89.9555 270.1592 15.06400619112187","MEAN_MOTION_DOT":"0.00025974","OBJECT_ID":"2021-027AJ","DECAY_DATE":null,"OBJECT_NAME":"STARLINK-2465","REV_AT_EPOCH":"11218","MEAN_MOTION":"15.06400619","ELEMENT_SET_NO":"999","CLASSIFICATION_TYPE":"U","EPOCH":"2023-04-10T17:04:01.412544","FILE":"3885363","PERIOD":"95.592","INCLINATION":"53.0544","TLE_LINE1":"1 48124U 21027AJ  23100.71112746  .00025974  00000-0  17562-2 0  9996","ECCENTRICITY":"0.00013800","ARG_OF_PERICENTER":"89.9555","COUNTRY_CODE":"US","LAUNCH_DATE":"2021-04-07","RA_OF_ASC_NODE":"258.0033","EPHEMERIS_TYPE":"0","REF_FRAME":"TEME","NORAD_CAT_ID":"48124","SEMIMAJOR_AXIS":"6925.347","RCS_SIZE":"LARGE","OBJECT_TYPE":"PAYLOAD","SITE":"AFETR","GP_ID":"229878324"},{"REV_AT_EPOCH":"11205","OBJECT_NAME":"STARLINK-2466","DECAY_DATE":null,"OBJECT_ID":"2021-027AK","MEAN_MOTION_DOT":"0.00005479","EPOCH":"2023-04-10T17:23:58.587360","CLASSIFICATION_TYPE":"U","ELEMENT_SET_NO":"999","MEAN_MOTION":"15.06409650","MEAN_ELEMENT_THEORY":"SGP4","MEAN_ANOMALY":"276.1621","PERIAPSIS":"545.854","BSTAR":"0.00038633000000","APOAPSIS":"548.514","TLE_LINE2":"2 48125  53.0527 268.1780 0001921  83.9587 276.1621 15.06409650112059","MEAN_MOTION_DDOT":"0.0000000000000","TIME_SYSTEM":"UTC","CENTER_NAME":"EARTH","EPHEMERIS_TYPE":"0","RA_OF_ASC_NODE":"268.1780","LAUNCH_DATE":"2021-04-07","GP_ID":"229879063","SITE":"AFETR","OBJECT_TYPE":"PAYLOAD","SEMIMAJOR_AXIS":"6925.319","RCS_SIZE":"LARGE","REF_FRAME":"TEME","NORAD_CAT_ID":"48125","FILE":"3885363","COUNTRY_CODE":"US","ARG_OF_PERICENTER":"83.9587","TLE_LINE1":"1 48125U 21027AK  23100.72498365  .00005479  00000-0  38633-3 0  9993","ECCENTRICITY":"0.00019210","INCLINATION":"53.0527","PERIOD":"95.592"},{"MEAN_ELEMENT_THEORY":"SGP4","APOAPSIS":"548.044","BSTAR":"0.00184450000000","MEAN_ANOMALY":"270.8460","PERIAPSIS":"546.467","TLE_LINE2":"2 48126  53.0530 247.5475 0001138  89.2659 270.8460 15.06386291111949","MEAN_MOTION_DDOT":"0.0000000000000","TIME_SYSTEM":"UTC","CENTER_NAME":"EARTH","DECAY_DATE":null,"OBJECT_ID":"2021-027AL","OBJECT_NAME":"STARLINK-2467","REV_AT_EPOCH":"11194","MEAN_MOTION_DOT":"0.00027289","EPOCH":"2023-04-10T19:28:40.406592","CLASSIFICATION_TYPE":"U","MEAN_MOTION":"15.06386291","ELEMENT_SET_NO":"999","FILE":"3885263","ECCENTRICITY":"0.00011380","TLE_LINE1":"1 48126U 21027AL  23100.81157878  .00027289  00000-0  18445-2 0  9996","ARG_OF_PERICENTER":"89.2659","COUNTRY_CODE":"US","PERIOD":"95.593","INCLINATION":"53.0530","RA_OF_ASC_NODE":"247.5475","EPHEMERIS_TYPE":"0","LAUNCH_DATE":"2021-04-07","RCS_SIZE":"LARGE","SEMIMAJOR_AXIS":"6925.391","OBJECT_TYPE":"PAYLOAD","SITE":"AFETR","GP_ID":"229854475","NORAD_CAT_ID":"48126","REF_FRAME":"TEME"},{"PERIOD":"95.591","INCLINATION":"53.0530","ECCENTRICITY":"0.00010640","TLE_LINE1":"1 48127U 21027AM  23100.86870736  .00026187  00000-0  17699-2 0  9993","ARG_OF_PERICENTER":"82.3423","COUNTRY_CODE":"US","FILE":"3885363","REF_FRAME":"TEME","NORAD_CAT_ID":"48127","SEMIMAJOR_AXIS":"6925.315","RCS_SIZE":"LARGE","SITE":"AFETR","OBJECT_TYPE":"PAYLOAD","GP_ID":"229878069","LAUNCH_DATE":"2021-04-07","EPHEMERIS_TYPE":"0","RA_OF_ASC_NODE":"267.2970","TIME_SYSTEM":"UTC","MEAN_MOTION_DDOT":"0.0000000000000","CENTER_NAME":"EARTH","TLE_LINE2":"2 48127  53.0530 267.2970 0001064  82.3423 277.7687 15.06411005112074","APOAPSIS":"547.917","BSTAR":"0.00176990000000","PERIAPSIS":"546.443","MEAN_ANOMALY":"277.7687","MEAN_ELEMENT_THEORY":"SGP4","MEAN_MOTION":"15.06411005","ELEMENT_SET_NO":"999","CLASSIFICATION_TYPE":"U","EPOCH":"2023-04-10T20:50:56.315904","MEAN_MOTION_DOT":"0.00026187","OBJECT_ID":"2021-027AM","DECAY_DATE":null,"OBJECT_NAME":"STARLINK-2468","REV_AT_EPOCH":"11207"},{"REF_FRAME":"TEME","NORAD_CAT_ID":"48128","GP_ID":"229878824","SEMIMAJOR_AXIS":"6925.332","RCS_SIZE":"LARGE","OBJECT_TYPE":"PAYLOAD","SITE":"AFETR","LAUNCH_DATE":"2021-04-07","EPHEMERIS_TYPE":"0","RA_OF_ASC_NODE":"198.3605","INCLINATION":"53.0530","PERIOD":"95.592","COUNTRY_CODE":"US","TLE_LINE1":"1 48128U 21027AN  23100.65032553  .00034794  00000-0  23429-2 0  9999","ECCENTRICITY":"0.00014500","ARG_OF_PERICENTER":"93.6296","FILE":"3885363","MEAN_MOTION":"15.06405384","ELEMENT_SET_NO":"999","EPOCH":"2023-04-10T15:36:28.125792","CLASSIFICATION_TYPE":"U","MEAN_MOTION_DOT":"0.00034794","OBJECT_NAME":"STARLINK-2469","REV_AT_EPOCH":"11301","OBJECT_ID":"2021-027AN","DECAY_DATE":null,"MEAN_MOTION_DDOT":"0.0000000000000","CENTER_NAME":"EARTH","TIME_SYSTEM":"UTC","TLE_LINE2":"2 48128  53.0530 198.3605 0001450  93.6296 266.4859 15.06405384113010","PERIAPSIS":"546.193","MEAN_ANOMALY":"266.4859","APOAPSIS":"548.201","BSTAR":"0.00234290000000","MEAN_ELEMENT_THEORY":"SGP4"}];
